{
  "type": "FeatureCollection",
  "features": [
    {
      "type": "Feature",
      "properties": {
        "norad_id": 67026,
        "name": "STARLINK-36176",
        "group": "last-30-days",
        "lat": 53.37380273538774,
        "lon": -24.778479445728397,
        "alt_km": 280.4408450095334,
        "timestamp": "2025-12-18T21:31:49.702131+00:00",
        "meta_object_name": "STARLINK-36176",
        "meta_object_id": "2025-293Z",
        "meta_epoch": "2025-12-17T20:00:01.999872",
        "meta_mean_motion": 15.99003192,
        "meta_eccentricity": 0.00040961,
        "meta_inclination": 69.9926,
        "meta_ra_of_asc_node": 308.9841,
        "meta_arg_of_pericenter": 267.4545,
        "meta_mean_anomaly": 154.4983,
        "meta_ephemeris_type": 0,
        "meta_classification_type": "U",
        "meta_norad_cat_id": 67026,
        "meta_element_set_no": 999,
        "meta_rev_at_epoch": 238,
        "meta_bstar": -0.0024928774,
        "meta_mean_motion_dot": -0.01204027,
        "meta_mean_motion_ddot": 0.00045805067,
        "tle_line1": "1 67026U 25293Z   25351.83335648 -.01204027  45805-3 -24929-2 0  9999",
        "tle_line2": "2 67026  69.9926 308.9841 0004096 267.4545 154.4983 15.99003192  2385"
      },
      "geometry": {
        "type": "Point",
        "coordinates": [
          -24.778479445728397,
          53.37380273538774
        ]
      }
    },
    {
      "type": "Feature",
      "properties": {
        "norad_id": 67027,
        "name": "STARLINK-36171",
        "group": "last-30-days",
        "lat": 51.85849263161133,
        "lon": -26.48093418757585,
        "alt_km": 280.7201836698805,
        "timestamp": "2025-12-18T21:31:49.702140+00:00",
        "meta_object_name": "STARLINK-36171",
        "meta_object_id": "2025-293AA",
        "meta_epoch": "2025-12-17T20:00:01.999872",
        "meta_mean_motion": 15.98936546,
        "meta_eccentricity": 0.00040721,
        "meta_inclination": 69.9925,
        "meta_ra_of_asc_node": 308.9863,
        "meta_arg_of_pericenter": 268.6099,
        "meta_mean_anomaly": 151.7398,
        "meta_ephemeris_type": 0,
        "meta_classification_type": "U",
        "meta_norad_cat_id": 67027,
        "meta_element_set_no": 999,
        "meta_rev_at_epoch": 238,
        "meta_bstar": -0.0024887441,
        "meta_mean_motion_dot": -0.01197601,
        "meta_mean_motion_ddot": 0.00045322393,
        "tle_line1": "1 67027U 25293AA  25351.83335648 -.01197601  45322-3 -24887-2 0  9996",
        "tle_line2": "2 67027  69.9925 308.9863 0004072 268.6099 151.7398 15.98936546  2387"
      },
      "geometry": {
        "type": "Point",
        "coordinates": [
          -26.48093418757585,
          51.85849263161133
        ]
      }
    },
    {
      "type": "Feature",
      "properties": {
        "norad_id": 67028,
        "name": "STARLINK-36132",
        "group": "last-30-days",
        "lat": 56.91639928323932,
        "lon": -20.12754670392148,
        "alt_km": 279.6535366288181,
        "timestamp": "2025-12-18T21:31:49.702150+00:00",
        "meta_object_name": "STARLINK-36132",
        "meta_object_id": "2025-293AB",
        "meta_epoch": "2025-12-17T20:00:01.999872",
        "meta_mean_motion": 15.99161897,
        "meta_eccentricity": 0.00041134,
        "meta_inclination": 69.9927,
        "meta_ra_of_asc_node": 308.9796,
        "meta_arg_of_pericenter": 266.9729,
        "meta_mean_anomaly": 158.8076,
        "meta_ephemeris_type": 0,
        "meta_classification_type": "U",
        "meta_norad_cat_id": 67028,
        "meta_element_set_no": 999,
        "meta_rev_at_epoch": 238,
        "meta_bstar": -0.002476931,
        "meta_mean_motion_dot": -0.01207009,
        "meta_mean_motion_ddot": 0.00046094304,
        "tle_line1": "1 67028U 25293AB  25351.83335648 -.01207009  46094-3 -24769-2 0  9997",
        "tle_line2": "2 67028  69.9927 308.9796 0004113 266.9729 158.8076 15.99161897  2383"
      },
      "geometry": {
        "type": "Point",
        "coordinates": [
          -20.12754670392148,
          56.91639928323932
        ]
      }
    },
    {
      "type": "Feature",
      "properties": {
        "norad_id": 67029,
        "name": "STARLINK-36190",
        "group": "last-30-days",
        "lat": 54.96669630394494,
        "lon": -22.817728726785678,
        "alt_km": 280.1065124630968,
        "timestamp": "2025-12-18T21:31:49.702164+00:00",
        "meta_object_name": "STARLINK-36190",
        "meta_object_id": "2025-293AC",
        "meta_epoch": "2025-12-17T20:00:01.999872",
        "meta_mean_motion": 15.99071595,
        "meta_eccentricity": 0.00041451,
        "meta_inclination": 69.9929,
        "meta_ra_of_asc_node": 308.9822,
        "meta_arg_of_pericenter": 267.261,
        "meta_mean_anomaly": 156.3872,
        "meta_ephemeris_type": 0,
        "meta_classification_type": "U",
        "meta_norad_cat_id": 67029,
        "meta_element_set_no": 999,
        "meta_rev_at_epoch": 238,
        "meta_bstar": -0.002480808,
        "meta_mean_motion_dot": -0.01202844,
        "meta_mean_motion_ddot": 0.00045756265,
        "tle_line1": "1 67029U 25293AC  25351.83335648 -.01202844  45756-3 -24808-2 0  9998",
        "tle_line2": "2 67029  69.9929 308.9822 0004145 267.2610 156.3872 15.99071595  2386"
      },
      "geometry": {
        "type": "Point",
        "coordinates": [
          -22.817728726785678,
          54.96669630394494
        ]
      }
    },
    {
      "type": "Feature",
      "properties": {
        "norad_id": 67030,
        "name": "STARLINK-36138",
        "group": "last-30-days",
        "lat": 19.767860510253726,
        "lon": 167.3768740808992,
        "alt_km": 293.3436188728574,
        "timestamp": "2025-12-18T21:31:49.702176+00:00",
        "meta_object_name": "STARLINK-36138",
        "meta_object_id": "2025-294A",
        "meta_epoch": "2025-12-17T20:00:01.999872",
        "meta_mean_motion": 15.94764944,
        "meta_eccentricity": 0.00017504,
        "meta_inclination": 42.9997,
        "meta_ra_of_asc_node": 151.3229,
        "meta_arg_of_pericenter": 276.2491,
        "meta_mean_anomaly": 123.7728,
        "meta_ephemeris_type": 0,
        "meta_classification_type": "U",
        "meta_norad_cat_id": 67030,
        "meta_element_set_no": 999,
        "meta_rev_at_epoch": 212,
        "meta_bstar": -0.0031885199,
        "meta_mean_motion_dot": -0.01268019,
        "meta_mean_motion_ddot": 0.00047924982,
        "tle_line1": "1 67030U 25294A   25351.83335648 -.01268019  47925-3 -31885-2 0  9990",
        "tle_line2": "2 67030  42.9997 151.3229 0001750 276.2491 123.7728 15.94764944  2123"
      },
      "geometry": {
        "type": "Point",
        "coordinates": [
          167.3768740808992,
          19.767860510253726
        ]
      }
    },
    {
      "type": "Feature",
      "properties": {
        "norad_id": 67031,
        "name": "STARLINK-36150",
        "group": "last-30-days",
        "lat": 20.599086128273264,
        "lon": 168.4752996965983,
        "alt_km": 292.9409558434172,
        "timestamp": "2025-12-18T21:31:49.702187+00:00",
        "meta_object_name": "STARLINK-36150",
        "meta_object_id": "2025-294B",
        "meta_epoch": "2025-12-17T20:00:01.999872",
        "meta_mean_motion": 15.94817296,
        "meta_eccentricity": 0.00017782,
        "meta_inclination": 42.9998,
        "meta_ra_of_asc_node": 151.3199,
        "meta_arg_of_pericenter": 280.5255,
        "meta_mean_anomaly": 120.6122,
        "meta_ephemeris_type": 0,
        "meta_classification_type": "U",
        "meta_norad_cat_id": 67031,
        "meta_element_set_no": 999,
        "meta_rev_at_epoch": 212,
        "meta_bstar": -0.003174128,
        "meta_mean_motion_dot": -0.01265886,
        "meta_mean_motion_ddot": 0.00047802534,
        "tle_line1": "1 67031U 25294B   25351.83335648 -.01265886  47803-3 -31741-2 0  9996",
        "tle_line2": "2 67031  42.9998 151.3199 0001778 280.5255 120.6122 15.94817296  2120"
      },
      "geometry": {
        "type": "Point",
        "coordinates": [
          168.4752996965983,
          20.599086128273264
        ]
      }
    },
    {
      "type": "Feature",
      "properties": {
        "norad_id": 67032,
        "name": "STARLINK-36131",
        "group": "last-30-days",
        "lat": 22.68720942207935,
        "lon": 171.3344878782853,
        "alt_km": 292.57303091557515,
        "timestamp": "2025-12-18T21:31:49.702197+00:00",
        "meta_object_name": "STARLINK-36131",
        "meta_object_id": "2025-294C",
        "meta_epoch": "2025-12-17T20:00:01.999872",
        "meta_mean_motion": 15.94973854,
        "meta_eccentricity": 0.00016953,
        "meta_inclination": 42.9998,
        "meta_ra_of_asc_node": 151.3126,
        "meta_arg_of_pericenter": 273.2681,
        "meta_mean_anomaly": 130.7083,
        "meta_ephemeris_type": 0,
        "meta_classification_type": "U",
        "meta_norad_cat_id": 67032,
        "meta_element_set_no": 999,
        "meta_rev_at_epoch": 212,
        "meta_bstar": -0.0031837685,
        "meta_mean_motion_dot": -0.01280305,
        "meta_mean_motion_ddot": 0.00048880162,
        "tle_line1": "1 67032U 25294C   25351.83335648 -.01280305  48880-3 -31838-2 0  9993",
        "tle_line2": "2 67032  42.9998 151.3126 0001695 273.2681 130.7083 15.94973854  2122"
      },
      "geometry": {
        "type": "Point",
        "coordinates": [
          171.3344878782853,
          22.68720942207935
        ]
      }
    }
  ]
}